ORBCOMM FM24            
1 25478U 98053D   24216.71528114  .00002620  00000+0  94091-3 0  9990
2 25478  45.0093 332.2844 0001056 189.7216 170.3611 14.36040038351772
ORBCOMM FM25            
1 25479U 98053E   24216.75227672  .00002502  00000+0  90088-3 0  9991
2 25479  45.0084 330.3599 0002804 126.1654 233.9453 14.36024453352079
ORBCOMM FM26            
1 25480U 98053F   24216.65422143  .00001731  00000+0  64600-3 0  9996
2 25480  45.0085 325.3187 0005308 135.5298 224.5976 14.35408989351994
ORBCOMM FM27            
1 25481U 98053G   24216.81068284  .00002666  00000+0  95683-3 0  9990
2 25481  45.0071 330.3446 0002253 229.6686 130.3965 14.36013526352012
ORBCOMM FM30            
1 25980U 99065A   24216.88655227  .00002195  00000+0  80396-3 0  9996
2 25980  45.0307 149.8339 0005487 232.3871 127.6479 14.35540870288823
ORBCOMM FM32            
1 25982U 99065C   24216.89329413  .00002281  00000+0  85018-3 0  9996
2 25982  45.0148 157.8452 0005859 261.5405  98.4778 14.34539996289007
